GLOBALSTAR M084         
1 38040U 11080A   25252.88108676 -.00000074  00000+0  16801-3 0  9995
2 38040  52.0000 150.6360 0000384  90.4255 346.9896 12.62268759633369
GLOBALSTAR M080         
1 38041U 11080B   25252.93263086 -.00000075  00000+0  15899-3 0  9996
2 38041  52.0054 152.1010 0000918  38.7000  42.3024 12.62268825633492
GLOBALSTAR M082         
1 38042U 11080C   25252.78921412 -.00000079  00000+0  13620-3 0  9998
2 38042  52.0065 108.0066 0001041  55.6287  24.2261 12.62268502634180
GLOBALSTAR M092         
1 38043U 11080D   25252.37680285 -.00000102  00000+0  10865-4 0  9990
2 38043  52.0071 199.6436 0000386  59.1403  64.9658 12.62265669632589
GLOBALSTAR M090         
1 38044U 11080E   25252.90002677 -.00000087  00000+0  91289-4 0  9994
2 38044  52.0114 101.5341 0000941  76.1145  27.3882 12.62262314634313
GLOBALSTAR M086         
1 38045U 11080F   25252.92142157 -.00000077  00000+0  15166-3 0  9993
2 38045  51.9888 101.8544 0001458 122.1275 322.6825 12.62276874634266
GLOBALSTAR M097         
1 39072U 13005A   25252.53401036 -.00000112  00000+0 -48666-4 0  9997
2 39072  52.0070  17.6693 0000880  99.0516 261.0450 12.62265769581463
GLOBALSTAR M093         
1 39073U 13005B   25252.82469332 -.00000103  00000+0  30774-5 0  9994
2 39073  52.0132  10.0247 0001087  97.2270 262.8721 12.62264136581458
